KUIPER-00061            
1 64521U 25134X   25359.00003472  .00039659  00000+0  53872-2 0  9991
2 64521  51.8989 198.3198 0004673  39.0048 263.6323 14.78438146  4031
KUIPER-00062            
1 64522U 25134Y   25358.86359602  .00003113  00000+0  38755-3 0  9994
2 64522  51.8957 203.4902 0007504  51.0529 309.1103 14.85065965 29001
KUIPER-00063            
1 64523U 25134Z   25359.00003472  .00078227  00000+0  10416-1 0  9993
2 64523  51.8998 208.3543 0000447  96.2295 245.3817 14.78931624  4273
KUIPER-00064            
1 64524U 25134AA  25358.87195532  .00002870  00000+0  40595-3 0  9991
2 64524  51.9001 206.3464 0008023 103.6995 256.4861 14.79879328 28965
KUIPER-00065            
1 64525U 25134AB  25359.00003472  .00035180  00000+0  44211-2 0  9997
2 64525  51.9004 211.0321 0011872  35.9584 264.8919 14.81731374  3793
KUIPER-00066            
1 64526U 25134AC  25358.79335197  .00010513  00000+0  47936-3 0  9996
2 64526  51.8910 177.8342 0000116 126.9898 233.1093 15.21163385 29357
KUIPER-00069            
1 64816U 25151A   25358.89079339  .00004756  00000+0  65765-3 0  9993
2 64816  51.9004 251.3722 0005676  46.3940 313.7492 14.79592644 25689
KUIPER-00070            
1 64817U 25151B   25358.49255364  .00005969  00000+0  80984-3 0  9991
2 64817  51.8990 278.0868 0010946   8.0598 352.0538 14.79983265 25286
